[ 
  {"street": "Vivulskio g.", "houseNumber": "103", "city": "Vilnius", "zipCode": "00106"}, 
  {"street": "Vivulskio g.", "houseNumber": "223", "city": "Vilnius", "zipCode": "00109"}, 
  {"street": "Vieversiu g.", "houseNumber": "123", "city": "Vilnius", "zipCode": "49208"}, 
  {"street": "Vivulskio g.", "houseNumber": "103", "city": "Ukmerge", "zipCode": "98204"}, 
  {"street": "Vivulskio g.", "houseNumber": "203", "city": "Ukmerge", "zipCode": "98201"}, 
  {"street": "Verkiu g.", "houseNumber": "103", "city": "Vilnius", "zipCode": "66619"}, 
  {"street": "Verkiu g.", "houseNumber": "123", "city": "Vilnius", "zipCode": "66610"}, 
  {"street": "Verkiu g.", "houseNumber": "123", "city": "Vilnius", "zipCode": "66619"},
  {"street": "Verkiu g.", "houseNumber": "123", "city": "Alytus", "zipCode": "66610"}, 
  {"street": "Verkiu g.", "houseNumber": "43", "city": "Vilnius", "zipCode": "30565"}, 
  {"street": "Verkiu g.", "houseNumber": "423", "city": "Vilnius", "zipCode": "40120"}, 
  {"street": "Vivulskio g.", "houseNumber": "423", "city": "Vilnius", "zipCode": "42500"}, 
  {"street": "Vivulskio g.", "houseNumber": "123", "city": "Vilnius", "zipCode": "70546"}, 
  {"street": "Vivulskio g.", "houseNumber": "223", "city": "Kaunas", "zipCode": "12300"}, 
  {"street": "Vivulskio g.", "houseNumber": "123", "city": "Kaunas", "zipCode": "12300"}, 
  {"street": "Vivulskio g.", "houseNumber": "123", "city": "Kaunas", "zipCode": "12309"}, 
  {"street": "Vivulskio g.", "houseNumber": "423", "city": "Kaunas", "zipCode": "12301"}
]